[{"OBJECT_NAME":"STARLINK-4530","OBJECT_ID":"2022-097F","EPOCH":"2026-03-09T10:38:59.954208","MEAN_MOTION":15.08830673,"ECCENTRICITY":0.00011296,"INCLINATION":53.2163,"RA_OF_ASC_NODE":125.2236,"ARG_OF_PERICENTER":81.6249,"MEAN_ANOMALY":278.4871,"EPHEMERIS_TYPE":0,"CLASSIFICATION_TYPE":"U","NORAD_CAT_ID":53393,"ELEMENT_SET_NO":999,"REV_AT_EPOCH":19863,"BSTAR":1.2236218e-5,"MEAN_MOTION_DOT":-9.3e-7,"MEAN_MOTION_DDOT":0},{"OBJECT_NAME":"RAISE-4","OBJECT_ID":"2025-297B","EPOCH":"2026-03-09T23:25:57.718272","MEAN_MOTION":15.08174958,"ECCENTRICITY":0.00127133,"INCLINATION":97.4953,"RA_OF_ASC_NODE":219.2703,"ARG_OF_PERICENTER":22.7159,"MEAN_ANOMALY":337.4629,"EPHEMERIS_TYPE":0,"CLASSIFICATION_TYPE":"U","NORAD_CAT_ID":67073,"ELEMENT_SET_NO":999,"REV_AT_EPOCH":1293,"BSTAR":0.00037087145,"MEAN_MOTION_DOT":5.682e-5,"MEAN_MOTION_DDOT":0}]
